{
  "norad_id": 55832,
  "name": "ONEWEB-0673",
  "history": [
    {
      "epoch": "2026-03-28T21:39:14.006016Z",
      "apogee_km": 1187.0976756944265,
      "perigee_km": 1184.4365429506852,
      "latitude_deg": -7.59491814118257e-09,
      "longitude_deg": 169.8439119870151,
      "height_km": 1188.6010707595635,
      "semi_major_axis_km": 7563.904109322555,
      "eccentricity": 0.00017591,
      "inclination_deg": 87.9198,
      "raan_deg": 320.9683,
      "arg_perigee_deg": 87.2117,
      "mean_anomaly_deg": 272.9217,
      "mean_motion_rev_day": 13.19725901
    },
    {
      "epoch": "2026-03-29T03:06:45.724896Z",
      "apogee_km": 1187.1014240452714,
      "perigee_km": 1184.4328786606748,
      "latitude_deg": 4.1021724873457285e-05,
      "longitude_deg": 87.6922661041369,
      "height_km": 1188.605108898418,
      "semi_major_axis_km": 7563.904151352973,
      "eccentricity": 0.0001764,
      "inclination_deg": 87.9197,
      "raan_deg": 320.923,
      "arg_perigee_deg": 87.3919,
      "mean_anomaly_deg": 272.7416,
      "mean_motion_rev_day": 13.1972589
    },
    {
      "epoch": "2026-03-30T04:35:13.663968Z",
      "apogee_km": 1187.0904291987981,
      "perigee_km": 1184.4415503717755,
      "latitude_deg": -1.0440396067097988e-05,
      "longitude_deg": 64.31835454411664,
      "height_km": 1188.6044261328782,
      "semi_major_axis_km": 7563.902989785286,
      "eccentricity": 0.0001751,
      "inclination_deg": 87.9194,
      "raan_deg": 320.7117,
      "arg_perigee_deg": 87.392,
      "mean_anomaly_deg": 272.7413,
      "mean_motion_rev_day": 13.19726194
    },
    {
      "epoch": "2026-03-30T13:41:06.525024Z",
      "apogee_km": 1187.0905070032668,
      "perigee_km": 1184.4448044327883,
      "latitude_deg": 1.4979209074459412e-05,
      "longitude_deg": -72.60094077869553,
      "height_km": 1188.6044812986702,
      "semi_major_axis_km": 7563.904655718027,
      "eccentricity": 0.00017489,
      "inclination_deg": 87.9193,
      "raan_deg": 320.6363,
      "arg_perigee_deg": 87.3191,
      "mean_anomaly_deg": 272.8142,
      "mean_motion_rev_day": 13.19725758
    },
    {
      "epoch": "2026-03-31T04:14:31.009920Z",
      "apogee_km": 1187.0875103536755,
      "perigee_km": 1184.4431700955338,
      "latitude_deg": 2.3681365135630962e-05,
      "longitude_deg": 68.32861329169066,
      "height_km": 1188.6044304197312,
      "semi_major_axis_km": 7563.902340224605,
      "eccentricity": 0.0001748,
      "inclination_deg": 87.9193,
      "raan_deg": 320.5157,
      "arg_perigee_deg": 87.4159,
      "mean_anomaly_deg": 272.7174,
      "mean_motion_rev_day": 13.19726364
    },
    {
      "epoch": "2026-04-01T09:21:20.104992Z",
      "apogee_km": 1187.0996319958222,
      "perigee_km": 1184.432599757165,
      "latitude_deg": 5.6452982584745455e-05,
      "longitude_deg": -9.813101294324456,
      "height_km": 1188.598895248619,
      "semi_major_axis_km": 7563.903115876494,
      "eccentricity": 0.0001763,
      "inclination_deg": 87.9191,
      "raan_deg": 320.2742,
      "arg_perigee_deg": 87.1679,
      "mean_anomaly_deg": 272.9656,
      "mean_motion_rev_day": 13.19726161
    },
    {
      "epoch": "2026-04-02T09:00:37.526976Z",
      "apogee_km": 1187.1268685426521,
      "perigee_km": 1184.4073424605613,
      "latitude_deg": 7.473305641065087e-05,
      "longitude_deg": -5.8031609549935235,
      "height_km": 1188.58100860493,
      "semi_major_axis_km": 7563.904105501607,
      "eccentricity": 0.00017977,
      "inclination_deg": 87.919,
      "raan_deg": 320.0782,
      "arg_perigee_deg": 86.4288,
      "mean_anomaly_deg": 273.7051,
      "mean_motion_rev_day": 13.19725902
    },
    {
      "epoch": "2026-04-02T21:44:51.496512Z",
      "apogee_km": 1187.0720468927184,
      "perigee_km": 1184.4653737068356,
      "latitude_deg": -2.9771992735215225e-07,
      "longitude_deg": 162.5095315214218,
      "height_km": 1188.6229972133603,
      "semi_major_axis_km": 7563.905710299777,
      "eccentricity": 0.00017231,
      "inclination_deg": 87.9191,
      "raan_deg": 319.9722,
      "arg_perigee_deg": 88.0451,
      "mean_anomaly_deg": 272.0879,
      "mean_motion_rev_day": 13.19725482
    },
    {
      "epoch": "2026-04-03T14:07:26.582304Z",
      "apogee_km": 1187.1080363649717,
      "perigee_km": 1184.4243635096336,
      "latitude_deg": 2.0775229330190285e-05,
      "longitude_deg": -83.9449138675668,
      "height_km": 1188.6123921823003,
      "semi_major_axis_km": 7563.903199937302,
      "eccentricity": 0.0001774,
      "inclination_deg": 87.9188,
      "raan_deg": 319.8365,
      "arg_perigee_deg": 87.7594,
      "mean_anomaly_deg": 272.3742,
      "mean_motion_rev_day": 13.19726139
    },
    {
      "epoch": "2026-04-04T21:03:26.186688Z",
      "apogee_km": 1187.1205539982902,
      "perigee_km": 1184.4066264665144,
      "latitude_deg": -8.77134841680794e-06,
      "longitude_deg": 170.52955025363406,
      "height_km": 1188.6098060395832,
      "semi_major_axis_km": 7563.9005902324025,
      "eccentricity": 0.0001794,
      "inclination_deg": 87.9183,
      "raan_deg": 319.5797,
      "arg_perigee_deg": 87.7868,
      "mean_anomaly_deg": 272.347,
      "mean_motion_rev_day": 13.19726822
    },
    {
      "epoch": "2026-04-05T13:26:01.255200Z",
      "apogee_km": 1187.1272943067006,
      "perigee_km": 1184.4000542795784,
      "latitude_deg": -9.009427454466184e-06,
      "longitude_deg": -75.92482484914805,
      "height_km": 1188.6087930737801,
      "semi_major_axis_km": 7563.90067429314,
      "eccentricity": 0.00018028,
      "inclination_deg": 87.9181,
      "raan_deg": 319.444,
      "arg_perigee_deg": 87.7522,
      "mean_anomaly_deg": 272.3817,
      "mean_motion_rev_day": 13.197268
    },
    {
      "epoch": "2026-04-05T15:15:11.815488Z",
      "apogee_km": 1187.1257302581516,
      "perigee_km": 1184.401213308216,
      "latitude_deg": 1.1486547936381453e-05,
      "longitude_deg": -103.30865376359839,
      "height_km": 1188.6090036005914,
      "semi_major_axis_km": 7563.900471783184,
      "eccentricity": 0.0001801,
      "inclination_deg": 87.9182,
      "raan_deg": 319.4289,
      "arg_perigee_deg": 87.7673,
      "mean_anomaly_deg": 272.3666,
      "mean_motion_rev_day": 13.19726853
    },
    {
      "epoch": "2026-04-06T02:10:15.189312Z",
      "apogee_km": 1187.1297956562448,
      "perigee_km": 1184.3971097007015,
      "latitude_deg": -4.3209578306777214e-05,
      "longitude_deg": 92.38811572334059,
      "height_km": 1188.5978598181139,
      "semi_major_axis_km": 7563.900452678473,
      "eccentricity": 0.00018064,
      "inclination_deg": 87.918,
      "raan_deg": 319.3381,
      "arg_perigee_deg": 87.3072,
      "mean_anomaly_deg": 272.8267,
      "mean_motion_rev_day": 13.19726858
    },
    {
      "epoch": "2026-04-07T12:44:35.856384Z",
      "apogee_km": 1187.1181080937376,
      "perigee_km": 1184.4078114601507,
      "latitude_deg": -8.701074051346973e-05,
      "longitude_deg": -67.90444079989291,
      "height_km": 1188.6188640646603,
      "semi_major_axis_km": 7563.899959776943,
      "eccentricity": 0.00017916,
      "inclination_deg": 87.9179,
      "raan_deg": 319.0515,
      "arg_perigee_deg": 88.1931,
      "mean_anomaly_deg": 271.9406,
      "mean_motion_rev_day": 13.19726987
    },
    {
      "epoch": "2026-04-07T20:01:18.145920Z",
      "apogee_km": 1187.1196109329367,
      "perigee_km": 1184.4102212665903,
      "latitude_deg": 2.0644813614657615e-05,
      "longitude_deg": -177.43995802675812,
      "height_km": 1188.6204072414325,
      "semi_major_axis_km": 7563.901916099763,
      "eccentricity": 0.0001791,
      "inclination_deg": 87.9179,
      "raan_deg": 318.9911,
      "arg_perigee_deg": 88.1757,
      "mean_anomaly_deg": 271.9581,
      "mean_motion_rev_day": 13.19726475
    },
    {
      "epoch": "2026-04-08T14:13:03.770400Z",
      "apogee_km": 1187.1275611737992,
      "perigee_km": 1184.4009260535022,
      "latitude_deg": -1.303789463219906e-05,
      "longitude_deg": -91.27854700623847,
      "height_km": 1188.6257063766577,
      "semi_major_axis_km": 7563.901243613651,
      "eccentricity": 0.00018024,
      "inclination_deg": 87.9176,
      "raan_deg": 318.8399,
      "arg_perigee_deg": 88.439,
      "mean_anomaly_deg": 271.6949,
      "mean_motion_rev_day": 13.19726651
    },
    {
      "epoch": "2026-04-09T21:09:03.358368Z",
      "apogee_km": 1187.152662507111,
      "perigee_km": 1184.3751980855068,
      "latitude_deg": 2.981720761826617e-06,
      "longitude_deg": 163.19608439289698,
      "height_km": 1188.6228498149833,
      "semi_major_axis_km": 7563.900930296309,
      "eccentricity": 0.0001836,
      "inclination_deg": 87.9175,
      "raan_deg": 318.5832,
      "arg_perigee_deg": 88.3652,
      "mean_anomaly_deg": 271.7691,
      "mean_motion_rev_day": 13.19726733
    },
    {
      "epoch": "2026-04-10T00:47:24.465120Z",
      "apogee_km": 1187.1536667129385,
      "perigee_km": 1184.371664415944,
      "latitude_deg": 6.778568907657177e-05,
      "longitude_deg": 108.42848503151366,
      "height_km": 1188.6241212485788,
      "semi_major_axis_km": 7563.899665564441,
      "eccentricity": 0.0001839,
      "inclination_deg": 87.9174,
      "raan_deg": 318.553,
      "arg_perigee_deg": 88.473,
      "mean_anomaly_deg": 271.6614,
      "mean_motion_rev_day": 13.19727064
    },
    {
      "epoch": "2026-04-11T20:27:38.223936Z",
      "apogee_km": 1187.1879435976534,
      "perigee_km": 1184.3499660833977,
      "latitude_deg": 4.2930733410357704e-05,
      "longitude_deg": 171.21506886204767,
      "height_km": 1188.6320452247312,
      "semi_major_axis_km": 7563.905954840525,
      "eccentricity": 0.0001876,
      "inclination_deg": 87.9172,
      "raan_deg": 318.1904,
      "arg_perigee_deg": 88.5718,
      "mean_anomaly_deg": 271.563,
      "mean_motion_rev_day": 13.19725418
    }
  ]
}